2025-234A               
1 66053U 25234A   25320.78485764  .00044070  00000+0  18347-2 0  9996
2 66053  97.4607  26.2419 0014685 185.2054 174.9033 15.23507521  4369
2025-234B               
1 66054U 25234B   25320.80547648  .00011718  00000+0  52249-3 0  9993
2 66054  97.5034  26.3696 0014930 176.4979 183.6364 15.21466766  4361
2025-234C               
1 66055U 25234C   25320.80312385  .00009563  00000+0  42554-3 0  9995
2 66055  97.4558  26.1998 0015632 178.1737 181.9559 15.21581948  4363
2025-234D               
1 66056U 25234D   25320.79643873  .00031547  00000+0  13551-2 0  9994
2 66056  97.4538  26.2004 0015224 178.4629 181.6657 15.22515324  4352
2025-234E               
1 66057U 25234E   25320.82444132  .00944917  00000+0  17265-1 0  9995
2 66057  97.4719  26.7382 0007428 243.0531 116.9960 15.46826805  4393
STARLINK-35552          
1 66058U 25235A   25320.83335647 -.02141030  00000+0 -34219-1 0  9995
2 66058  53.1601  49.5143 0000944  66.6300 216.5746 15.55872973  5713
STARLINK-35560          
1 66059U 25235B   25320.83335647 -.02269453  00000+0 -58875-1 0  9990
2 66059  53.1605  51.0361 0001104  75.5150 175.6274 15.41851784  5712
STARLINK-35558          
1 66060U 25235C   25320.83335647 -.00050709  00000+0 -12657-2 0  9991
2 66060  53.1600  51.2363 0001295  67.7750  82.1646 15.39630096  5716
STARLINK-35566          
1 66061U 25235D   25320.59004124  .00095990  00000+0  17109-2 0  9994
2 66061  53.1622  52.1459 0001200  88.5161 271.5986 15.49341330  5587
STARLINK-35421          
1 66062U 25235E   25320.83335647  .00034547  00000+0  87097-3 0  9994
2 66062  53.1608  51.1336 0001611  67.9318 133.5298 15.39576744  5712
STARLINK-35562          
1 66063U 25235F   25320.65386443  .00071365  00000+0  12791-2 0  9992
2 66063  53.1613  51.8302 0001625  80.5022 279.6171 15.49316733  5596
STARLINK-35542          
1 66064U 25235G   25320.68579689  .00074256  00000+0  18474-2 0  9998
2 66064  53.1613  52.0335 0001655  86.7177 273.4018 15.39636290  5592
