CCSDS_OMM_VERS = 2.0
CREATION_DATE  = 
ORIGINATOR     = 

OBJECT_NAME    = 2025-234A
OBJECT_ID      = 2025-234A
CENTER_NAME    = EARTH
REF_FRAME      = TEME
TIME_SYSTEM    = UTC
MEAN_ELEMENT_THEORY = SGP/SGP4

EPOCH          = 2025-11-16T18:50:11.700096
MEAN_MOTION    = 15.23507521
ECCENTRICITY   = .0014685
INCLINATION    = 97.4607
RA_OF_ASC_NODE = 26.2419
ARG_OF_PERICENTER = 185.2054
MEAN_ANOMALY   = 174.9033

EPHEMERIS_TYPE = 0
CLASSIFICATION_TYPE = U
NORAD_CAT_ID   = 66053
ELEMENT_SET_NO = 999
REV_AT_EPOCH   = 436
BSTAR          = .18347E-2
MEAN_MOTION_DOT = .4407E-3
MEAN_MOTION_DDOT = 0

CCSDS_OMM_VERS = 2.0
CREATION_DATE  = 
ORIGINATOR     = 

OBJECT_NAME    = 2025-234B
OBJECT_ID      = 2025-234B
CENTER_NAME    = EARTH
REF_FRAME      = TEME
TIME_SYSTEM    = UTC
MEAN_ELEMENT_THEORY = SGP/SGP4

EPOCH          = 2025-11-16T19:19:53.167872
MEAN_MOTION    = 15.21466766
ECCENTRICITY   = .001493
INCLINATION    = 97.5034
RA_OF_ASC_NODE = 26.3696
ARG_OF_PERICENTER = 176.4979
MEAN_ANOMALY   = 183.6364

EPHEMERIS_TYPE = 0
CLASSIFICATION_TYPE = U
NORAD_CAT_ID   = 66054
ELEMENT_SET_NO = 999
REV_AT_EPOCH   = 436
BSTAR          = .52249E-3
MEAN_MOTION_DOT = .11718E-3
MEAN_MOTION_DDOT = 0

CCSDS_OMM_VERS = 2.0
CREATION_DATE  = 
ORIGINATOR     = 

OBJECT_NAME    = 2025-234C
OBJECT_ID      = 2025-234C
CENTER_NAME    = EARTH
REF_FRAME      = TEME
TIME_SYSTEM    = UTC
MEAN_ELEMENT_THEORY = SGP/SGP4

EPOCH          = 2025-11-16T19:16:29.900640
MEAN_MOTION    = 15.21581948
ECCENTRICITY   = .0015632
INCLINATION    = 97.4558
RA_OF_ASC_NODE = 26.1998
ARG_OF_PERICENTER = 178.1737
MEAN_ANOMALY   = 181.9559

EPHEMERIS_TYPE = 0
CLASSIFICATION_TYPE = U
NORAD_CAT_ID   = 66055
ELEMENT_SET_NO = 999
REV_AT_EPOCH   = 436
BSTAR          = .42554E-3
MEAN_MOTION_DOT = .9563E-4
MEAN_MOTION_DDOT = 0

CCSDS_OMM_VERS = 2.0
CREATION_DATE  = 
ORIGINATOR     = 

OBJECT_NAME    = 2025-234D
OBJECT_ID      = 2025-234D
CENTER_NAME    = EARTH
REF_FRAME      = TEME
TIME_SYSTEM    = UTC
MEAN_ELEMENT_THEORY = SGP/SGP4

EPOCH          = 2025-11-16T19:06:52.306272
MEAN_MOTION    = 15.22515324
ECCENTRICITY   = .0015224
INCLINATION    = 97.4538
RA_OF_ASC_NODE = 26.2004
ARG_OF_PERICENTER = 178.4629
MEAN_ANOMALY   = 181.6657

EPHEMERIS_TYPE = 0
CLASSIFICATION_TYPE = U
NORAD_CAT_ID   = 66056
ELEMENT_SET_NO = 999
REV_AT_EPOCH   = 435
BSTAR          = .13551E-2
MEAN_MOTION_DOT = .31547E-3
MEAN_MOTION_DDOT = 0

CCSDS_OMM_VERS = 2.0
CREATION_DATE  = 
ORIGINATOR     = 

OBJECT_NAME    = 2025-234E
OBJECT_ID      = 2025-234E
CENTER_NAME    = EARTH
REF_FRAME      = TEME
TIME_SYSTEM    = UTC
MEAN_ELEMENT_THEORY = SGP/SGP4

EPOCH          = 2025-11-16T19:47:11.730048
MEAN_MOTION    = 15.46826805
ECCENTRICITY   = .0007428
INCLINATION    = 97.4719
RA_OF_ASC_NODE = 26.7382
ARG_OF_PERICENTER = 243.0531
MEAN_ANOMALY   = 116.9960

EPHEMERIS_TYPE = 0
CLASSIFICATION_TYPE = U
NORAD_CAT_ID   = 66057
ELEMENT_SET_NO = 999
REV_AT_EPOCH   = 439
BSTAR          = .17265E-1
MEAN_MOTION_DOT = .944917E-2
MEAN_MOTION_DDOT = 0

CCSDS_OMM_VERS = 2.0
CREATION_DATE  = 
ORIGINATOR     = 

OBJECT_NAME    = STARLINK-35552
OBJECT_ID      = 2025-235A
CENTER_NAME    = EARTH
REF_FRAME      = TEME
TIME_SYSTEM    = UTC
MEAN_ELEMENT_THEORY = SGP/SGP4

EPOCH          = 2025-11-16T20:00:01.999008
MEAN_MOTION    = 15.55872973
ECCENTRICITY   = .0000944
INCLINATION    = 53.1601
RA_OF_ASC_NODE = 49.5143
ARG_OF_PERICENTER = 66.6300
MEAN_ANOMALY   = 216.5746

EPHEMERIS_TYPE = 0
CLASSIFICATION_TYPE = U
NORAD_CAT_ID   = 66058
ELEMENT_SET_NO = 999
REV_AT_EPOCH   = 571
BSTAR          = -.34219E-1
MEAN_MOTION_DOT = -.214103E-1
MEAN_MOTION_DDOT = 0

CCSDS_OMM_VERS = 2.0
CREATION_DATE  = 
ORIGINATOR     = 

OBJECT_NAME    = STARLINK-35560
OBJECT_ID      = 2025-235B
CENTER_NAME    = EARTH
REF_FRAME      = TEME
TIME_SYSTEM    = UTC
MEAN_ELEMENT_THEORY = SGP/SGP4

EPOCH          = 2025-11-16T20:00:01.999008
MEAN_MOTION    = 15.41851784
ECCENTRICITY   = .0001104
INCLINATION    = 53.1605
RA_OF_ASC_NODE = 51.0361
ARG_OF_PERICENTER = 75.5150
MEAN_ANOMALY   = 175.6274

EPHEMERIS_TYPE = 0
CLASSIFICATION_TYPE = U
NORAD_CAT_ID   = 66059
ELEMENT_SET_NO = 999
REV_AT_EPOCH   = 571
BSTAR          = -.58875E-1
MEAN_MOTION_DOT = -.2269453E-1
MEAN_MOTION_DDOT = 0

CCSDS_OMM_VERS = 2.0
CREATION_DATE  = 
ORIGINATOR     = 

OBJECT_NAME    = STARLINK-35558
OBJECT_ID      = 2025-235C
CENTER_NAME    = EARTH
REF_FRAME      = TEME
TIME_SYSTEM    = UTC
MEAN_ELEMENT_THEORY = SGP/SGP4

EPOCH          = 2025-11-16T20:00:01.999008
MEAN_MOTION    = 15.39630096
ECCENTRICITY   = .0001295
INCLINATION    = 53.1600
RA_OF_ASC_NODE = 51.2363
ARG_OF_PERICENTER = 67.7750
MEAN_ANOMALY   = 82.1646

EPHEMERIS_TYPE = 0
CLASSIFICATION_TYPE = U
NORAD_CAT_ID   = 66060
ELEMENT_SET_NO = 999
REV_AT_EPOCH   = 571
BSTAR          = -.12657E-2
MEAN_MOTION_DOT = -.50709E-3
MEAN_MOTION_DDOT = 0

CCSDS_OMM_VERS = 2.0
CREATION_DATE  = 
ORIGINATOR     = 

OBJECT_NAME    = STARLINK-35566
OBJECT_ID      = 2025-235D
CENTER_NAME    = EARTH
REF_FRAME      = TEME
TIME_SYSTEM    = UTC
MEAN_ELEMENT_THEORY = SGP/SGP4

EPOCH          = 2025-11-16T14:09:39.563136
MEAN_MOTION    = 15.49341330
ECCENTRICITY   = .00012009
INCLINATION    = 53.1622
RA_OF_ASC_NODE = 52.1459
ARG_OF_PERICENTER = 88.5161
MEAN_ANOMALY   = 271.5986

EPHEMERIS_TYPE = 0
CLASSIFICATION_TYPE = U
NORAD_CAT_ID   = 66061
ELEMENT_SET_NO = 999
REV_AT_EPOCH   = 558
BSTAR          = .17108843E-2
MEAN_MOTION_DOT = .9599E-3
MEAN_MOTION_DDOT = 0

CCSDS_OMM_VERS = 2.0
CREATION_DATE  = 
ORIGINATOR     = 

OBJECT_NAME    = STARLINK-35421
OBJECT_ID      = 2025-235E
CENTER_NAME    = EARTH
REF_FRAME      = TEME
TIME_SYSTEM    = UTC
MEAN_ELEMENT_THEORY = SGP/SGP4

EPOCH          = 2025-11-16T20:00:01.999008
MEAN_MOTION    = 15.39576744
ECCENTRICITY   = .0001611
INCLINATION    = 53.1608
RA_OF_ASC_NODE = 51.1336
ARG_OF_PERICENTER = 67.9318
MEAN_ANOMALY   = 133.5298

EPHEMERIS_TYPE = 0
CLASSIFICATION_TYPE = U
NORAD_CAT_ID   = 66062
ELEMENT_SET_NO = 999
REV_AT_EPOCH   = 571
BSTAR          = .87097E-3
MEAN_MOTION_DOT = .34547E-3
MEAN_MOTION_DDOT = 0

CCSDS_OMM_VERS = 2.0
CREATION_DATE  = 
ORIGINATOR     = 

OBJECT_NAME    = STARLINK-35562
OBJECT_ID      = 2025-235F
CENTER_NAME    = EARTH
REF_FRAME      = TEME
TIME_SYSTEM    = UTC
MEAN_ELEMENT_THEORY = SGP/SGP4

EPOCH          = 2025-11-16T15:41:33.886752
MEAN_MOTION    = 15.49316733
ECCENTRICITY   = .0001625
INCLINATION    = 53.1613
RA_OF_ASC_NODE = 51.8302
ARG_OF_PERICENTER = 80.5022
MEAN_ANOMALY   = 279.6171

EPHEMERIS_TYPE = 0
CLASSIFICATION_TYPE = U
NORAD_CAT_ID   = 66063
ELEMENT_SET_NO = 999
REV_AT_EPOCH   = 559
BSTAR          = .12791E-2
MEAN_MOTION_DOT = .71365E-3
MEAN_MOTION_DDOT = 0

CCSDS_OMM_VERS = 2.0
CREATION_DATE  = 
ORIGINATOR     = 

OBJECT_NAME    = STARLINK-35542
OBJECT_ID      = 2025-235G
CENTER_NAME    = EARTH
REF_FRAME      = TEME
TIME_SYSTEM    = UTC
MEAN_ELEMENT_THEORY = SGP/SGP4

EPOCH          = 2025-11-16T16:27:32.851296
MEAN_MOTION    = 15.39636290
ECCENTRICITY   = .0001655
INCLINATION    = 53.1613
RA_OF_ASC_NODE = 52.0335
ARG_OF_PERICENTER = 86.7177
MEAN_ANOMALY   = 273.4018

EPHEMERIS_TYPE = 0
CLASSIFICATION_TYPE = U
NORAD_CAT_ID   = 66064
ELEMENT_SET_NO = 999
REV_AT_EPOCH   = 559
BSTAR          = .18474E-2
MEAN_MOTION_DOT = .74256E-3
MEAN_MOTION_DDOT = 0

